SITRO-AIS 26            
1 59067U 24039S   24076.51076496  .00006112  00000+0  60476-3 0  9997
2 59067  95.3944  34.6997 0173192 301.9045  56.5425 14.81453787  2384
SITRO-AIS 27            
1 59068U 24039T   24076.50968945  .00006287  00000+0  62071-3 0  9992
2 59068  95.3947  34.7014 0172992 301.8079  56.6393 14.81557391  2383
SITRO-AIS 28            
1 59071U 24039U   24076.50928470  .00006027  00000+0  59488-3 0  9995
2 59071  95.3947  34.7022 0172857 301.8096  56.6390 14.81592046  2388
